{"type": "FeatureCollection", "features": [ {"type": "Feature", "properties": {"norad_id": 34833, "name": "IRIDIUM 33 DEB", "group": "iridium-33-debris", "lat": -18.4432778322659, "lon": 50.97737622876404, "alt_km": 731.9960693921084, "timestamp": "2025-12-09T23:33:24.239358+00:00", "meta": {"OBJECT_NAME": "IRIDIUM 33 DEB", "OBJECT_ID": "1997-051MH", "EPOCH": "2025-12-09T05:43:51.843072", "MEAN_MOTION": 14.52344467, "ECCENTRICITY": 0.0021797, "INCLINATION": 86.3929, "RA_OF_ASC_NODE": 52.5028, "ARG_OF_PERICENTER": 109.2817, "MEAN_ANOMALY": 311.6946, "EPHEMERIS_TYPE": 0, "CLASSIFICATION_TYPE": "U", "NORAD_CAT_ID": 34833, "ELEMENT_SET_NO": 999, "REV_AT_EPOCH": 87664, "BSTAR": 0.0011811, "MEAN_MOTION_DOT": 4.84e-05, "MEAN_MOTION_DDOT": 0}, "tle": {"line1": "1 34833U 97051MH  25343.23879448  .00004840  00000+0  11811-2 0  9994", "line2": "2 34833  86.3929  52.5028 0021797 109.2817 311.6946 14.52344467876647"}}, "geometry": {"type": "Point", "coordinates": [50.97737622876404, -18.4432778322659]}}, {"type": "Feature", "properties": {"norad_id": 34870, "name": "IRIDIUM 33 DEB", "group": "iridium-33-debris", "lat": 75.09270042023796, "lon": -30.623574536144233, "alt_km": 638.997986128953, "timestamp": "2025-12-09T23:33:24.239368+00:00", "meta": {"OBJECT_NAME": "IRIDIUM 33 DEB", "OBJECT_ID": "1997-051MQ", "EPOCH": "2025-12-07T16:41:29.147136", "MEAN_MOTION": 14.76272854, "ECCENTRICITY": 0.00154972, "INCLINATION": 86.3098, "RA_OF_ASC_NODE": 316.3932, "ARG_OF_PERICENTER": 201.8058, "MEAN_ANOMALY": 332.1989, "EPHEMERIS_TYPE": 0, "CLASSIFICATION_TYPE": "U", "NORAD_CAT_ID": 34870, "ELEMENT_SET_NO": 999, "REV_AT_EPOCH": 88836, "BSTAR": 0.0021061979, "MEAN_MOTION_DOT": 0.00014658, "MEAN_MOTION_DDOT": 0}, "tle": {"line1": "1 34870U 97051MQ  25341.69547624  .00014658  00000+0  21062-2 0  9998", "line2": "2 34870  86.3098 316.3932 0015497 201.8058 332.1989 14.76272854888369"}}, "geometry": {"type": "Point", "coordinates": [-30.623574536144233, 75.09270042023796]}}, {"type": "Feature", "properties": {"norad_id": 34896, "name": "IRIDIUM 33 DEB", "group": "iridium-33-debris", "lat": 17.26480109971818, "lon": -30.93459800873763, "alt_km": 688.7526124124297, "timestamp": "2025-12-09T23:33:24.239379+00:00", "meta": {"OBJECT_NAME": "IRIDIUM 33 DEB", "OBJECT_ID": "1997-051MY", "EPOCH": "2025-12-09T05:43:17.078304", "MEAN_MOTION": 14.66220489, "ECCENTRICITY": 0.0024034, "INCLINATION": 86.3293, "RA_OF_ASC_NODE": 328.2553, "ARG_OF_PERICENTER": 227.4371, "MEAN_ANOMALY": 189.808, "EPHEMERIS_TYPE": 0, "CLASSIFICATION_TYPE": "U", "NORAD_CAT_ID": 34896, "ELEMENT_SET_NO": 999, "REV_AT_EPOCH": 87568, "BSTAR": 0.0013765, "MEAN_MOTION_DOT": 7.633e-05, "MEAN_MOTION_DDOT": 0}, "tle": {"line1": "1 34896U 97051MY  25343.23839211  .00007633  00000+0  13765-2 0  9990", "line2": "2 34896  86.3293 328.2553 0024034 227.4371 189.8080 14.66220489875680"}}, "geometry": {"type": "Point", "coordinates": [-30.93459800873763, 17.26480109971818]}}, {"type": "Feature", "properties": {"norad_id": 34926, "name": "IRIDIUM 33 DEB", "group": "iridium-33-debris", "lat": -41.32968365246531, "lon": -167.0370965529901, "alt_km": 709.7758778375901, "timestamp": "2025-12-09T23:33:24.239390+00:00", "meta": {"OBJECT_NAME": "IRIDIUM 33 DEB", "OBJECT_ID": "1997-051NF", "EPOCH": "2025-12-09T03:00:38.009952", "MEAN_MOTION": 14.54144924, "ECCENTRICITY": 0.00760026, "INCLINATION": 86.1319, "RA_OF_ASC_NODE": 9.9484, "ARG_OF_PERICENTER": 305.1684, "MEAN_ANOMALY": 118.2748, "EPHEMERIS_TYPE": 0, "CLASSIFICATION_TYPE": "U", "NORAD_CAT_ID": 34926, "ELEMENT_SET_NO": 999, "REV_AT_EPOCH": 86404, "BSTAR": 0.0063092717, "MEAN_MOTION_DOT": 0.00027819, "MEAN_MOTION_DDOT": 0}, "tle": {"line1": "1 34926U 97051NF  25343.12543993  .00027819  00000+0  63093-2 0  9998", "line2": "2 34926  86.1319   9.9484 0076002 305.1684 118.2748 14.54144924864041"}}, "geometry": {"type": "Point", "coordinates": [-167.0370965529901, -41.32968365246531]}}, {"type": "Feature", "properties": {"norad_id": 34985, "name": "IRIDIUM 33 DEB", "group": "iridium-33-debris", "lat": 70.50147914509441, "lon": -132.27433021574603, "alt_km": 752.4688560708837, "timestamp": "2025-12-09T23:33:24.239400+00:00", "meta": {"OBJECT_NAME": "IRIDIUM 33 DEB", "OBJECT_ID": "1997-051NR", "EPOCH": "2025-12-09T11:29:05.215776", "MEAN_MOTION": 14.41988127, "ECCENTRICITY": 0.00203885, "INCLINATION": 86.3692, "RA_OF_ASC_NODE": 58.2704, "ARG_OF_PERICENTER": 230.9177, "MEAN_ANOMALY": 148.9358, "EPHEMERIS_TYPE": 0, "CLASSIFICATION_TYPE": "U", "NORAD_CAT_ID": 34985, "ELEMENT_SET_NO": 999, "REV_AT_EPOCH": 87128, "BSTAR": 0.0011381521, "MEAN_MOTION_DOT": 3.759e-05, "MEAN_MOTION_DDOT": 0}, "tle": {"line1": "1 34985U 97051NR  25343.47853259  .00003759  00000+0  11382-2 0  9991", "line2": "2 34985  86.3692  58.2704 0020388 230.9177 148.9358 14.41988127871280"}}, "geometry": {"type": "Point", "coordinates": [-132.27433021574603, 70.50147914509441]}}, {"type": "Feature", "properties": {"norad_id": 35051, "name": "IRIDIUM 33 DEB", "group": "iridium-33-debris", "lat": -13.526382576963968, "lon": 9.177785010262802, "alt_km": 741.0084189913396, "timestamp": "2025-12-09T23:33:24.239410+00:00", "meta": {"OBJECT_NAME": "IRIDIUM 33 DEB", "OBJECT_ID": "1997-051NX", "EPOCH": "2025-12-09T08:41:17.541312", "MEAN_MOTION": 14.47575275, "ECCENTRICITY": 0.00106574, "INCLINATION": 86.3242, "RA_OF_ASC_NODE": 10.3338, "ARG_OF_PERICENTER": 100.3191, "MEAN_ANOMALY": 259.9214, "EPHEMERIS_TYPE": 0, "CLASSIFICATION_TYPE": "U", "NORAD_CAT_ID": 35051, "ELEMENT_SET_NO": 999, "REV_AT_EPOCH": 86947, "BSTAR": 0.0010277257, "MEAN_MOTION_DOT": 3.803e-05, "MEAN_MOTION_DDOT": 0}, "tle": {"line1": "1 35051U 97051NX  25343.36200858  .00003803  00000+0  10277-2 0  9997", "line2": "2 35051  86.3242  10.3338 0010657 100.3191 259.9214 14.47575275869476"}}, "geometry": {"type": "Point", "coordinates": [9.177785010262802, -13.526382576963968]}}, {"type": "Feature", "properties": {"norad_id": 35052, "name": "IRIDIUM 33 DEB", "group": "iridium-33-debris", "lat": -46.12812275191698, "lon": -154.5144170438198, "alt_km": 777.1037051923258, "timestamp": "2025-12-09T23:33:24.239424+00:00", "meta": {"OBJECT_NAME": "IRIDIUM 33 DEB", "OBJECT_ID": "1997-051NY", "EPOCH": "2025-12-09T09:09:14.071104", "MEAN_MOTION": 14.38486944, "ECCENTRICITY": 0.00136896, "INCLINATION": 86.3313, "RA_OF_ASC_NODE": 21.9161, "ARG_OF_PERICENTER": 94.3861, "MEAN_ANOMALY": 265.8902, "EPHEMERIS_TYPE": 0, "CLASSIFICATION_TYPE": "U", "NORAD_CAT_ID": 35052, "ELEMENT_SET_NO": 999, "REV_AT_EPOCH": 87227, "BSTAR": 0.00032817841, "MEAN_MOTION_DOT": 1.023e-05, "MEAN_MOTION_DDOT": 0}, "tle": {"line1": "1 35052U 97051NY  25343.38141286  .00001023  00000+0  32818-3 0  9997", "line2": "2 35052  86.3313  21.9161 0013689  94.3861 265.8902 14.38486944872278"}}, "geometry": {"type": "Point", "coordinates": [-154.5144170438198, -46.12812275191698]}}, {"type": "Feature", "properties": {"norad_id": 35080, "name": "IRIDIUM 33 DEB", "group": "iridium-33-debris", "lat": -67.11446639317138, "lon": 44.65032694069348, "alt_km": 629.1688080832546, "timestamp": "2025-12-09T23:33:24.239446+00:00", "meta": {"OBJECT_NAME": "IRIDIUM 33 DEB", "OBJECT_ID": "1997-051PF", "EPOCH": "2025-12-09T10:55:41.938464", "MEAN_MOTION": 14.85397119, "ECCENTRICITY": 0.00616418, "INCLINATION": 86.2064, "RA_OF_ASC_NODE": 53.9454, "ARG_OF_PERICENTER": 191.0106, "MEAN_ANOMALY": 168.9774, "EPHEMERIS_TYPE": 0, "CLASSIFICATION_TYPE": "U", "NORAD_CAT_ID": 35080, "ELEMENT_SET_NO": 999, "REV_AT_EPOCH": 69639, "BSTAR": 0.010046072, "MEAN_MOTION_DOT": 0.00090518, "MEAN_MOTION_DDOT": 0}, "tle": {"line1": "1 35080U 97051PF  25343.45534651  .00090518  00000+0  10046-1 0  9992", "line2": "2 35080  86.2064  53.9454 0061641 191.0106 168.9774 14.85397119696393"}}, "geometry": {"type": "Point", "coordinates": [44.65032694069348, -67.11446639317138]}}, {"type": "Feature", "properties": {"norad_id": 35297, "name": "IRIDIUM 33 DEB", "group": "iridium-33-debris", "lat": 66.49531607738075, "lon": 72.2918171503418, "alt_km": 733.3135630421275, "timestamp": "2025-12-09T23:33:24.239465+00:00", "meta": {"OBJECT_NAME": "IRIDIUM 33 DEB", "OBJECT_ID": "1997-051PM", "EPOCH": "2025-12-06T00:31:29.302752", "MEAN_MOTION": 14.45108459, "ECCENTRICITY": 0.00170329, "INCLINATION": 86.3867, "RA_OF_ASC_NODE": 65.6268, "ARG_OF_PERICENTER": 161.2449, "MEAN_ANOMALY": 198.9384, "EPHEMERIS_TYPE": 0, "CLASSIFICATION_TYPE": "U", "NORAD_CAT_ID": 35297, "ELEMENT_SET_NO": 999, "REV_AT_EPOCH": 70329, "BSTAR": 0.0012426888, "MEAN_MOTION_DOT": 4.371e-05, "MEAN_MOTION_DDOT": 0}, "tle": {"line1": "1 35297U 97051PM  25340.02186693  .00004371  00000+0  12427-2 0  9999", "line2": "2 35297  86.3867  65.6268 0017032 161.2449 198.9384 14.45108459703293"}}, "geometry": {"type": "Point", "coordinates": [72.2918171503418, 66.49531607738075]}}, {"type": "Feature", "properties": {"norad_id": 35299, "name": "IRIDIUM 33 DEB", "group": "iridium-33-debris", "lat": 41.57657835260787, "lon": 37.68840002089581, "alt_km": 737.4065108754367, "timestamp": "2025-12-09T23:33:24.239487+00:00", "meta": {"OBJECT_NAME": "IRIDIUM 33 DEB", "OBJECT_ID": "1997-051PP", "EPOCH": "2025-12-09T03:37:25.282848", "MEAN_MOTION": 14.40832112, "ECCENTRICITY": 0.00588898, "INCLINATION": 86.2882, "RA_OF_ASC_NODE": 34.7485, "ARG_OF_PERICENTER": 113.8076, "MEAN_ANOMALY": 303.2931, "EPHEMERIS_TYPE": 0, "CLASSIFICATION_TYPE": "U", "NORAD_CAT_ID": 35299, "ELEMENT_SET_NO": 999, "REV_AT_EPOCH": 86279, "BSTAR": 0.00094086001, "MEAN_MOTION_DOT": 3.095e-05, "MEAN_MOTION_DDOT": 0}, "tle": {"line1": "1 35299U 97051PP  25343.15098707  .00003095  00000+0  94086-3 0  9990", "line2": "2 35299  86.2882  34.7485 0058889 113.8076 303.2931 14.40832112862798"}}, "geometry": {"type": "Point", "coordinates": [37.68840002089581, 41.57657835260787]}}]}